ONEWEB-0102             
1 47258U 20100A   25040.64268892  .00000273  00000+0  72213-3 0  9994
2 47258  87.8829  88.7476 0002033  95.3717 264.7643 13.12444347200120
ONEWEB-0109             
1 47259U 20100B   25040.57456539  .00000437  00000+0  11784-2 0  9991
2 47259  87.8829  88.7286 0002017  97.5804 262.5553 13.12442140199945
ONEWEB-0110             
1 47260U 20100C   25040.60050879 -.00000091  00000+0 -28833-3 0  9996
2 47260  87.8822  88.7152 0002031  99.5684 260.5674 13.12440000200113
ONEWEB-0111             
1 47261U 20100D   25040.63132038 -.00000237  00000+0 -69533-3 0  9992
2 47261  87.8828  88.7169 0001959  97.3634 262.7718 13.12444136199953
ONEWEB-0114             
1 47262U 20100E   25040.58591831  .00000378  00000+0  10157-2 0  9998
2 47262  87.8824  88.7317 0002115  88.7858 271.3513 13.12440897199906
ONEWEB-0117             
1 47263U 20100F   25040.57780712  .00000466  00000+0  12604-2 0  9993
2 47263  87.8828  88.7188 0001899  99.0626 261.0717 13.12441752199917
ONEWEB-0118             
1 47264U 20100G   25040.68648201 -.00000350  00000+0 -10089-2 0  9991
2 47264  87.8829  88.6990 0001826  87.4437 272.6900 13.12443454200129
ONEWEB-0119             
1 47265U 20100H   25040.63782219  .00000068  00000+0  15485-3 0  9995
2 47265  87.8828  88.7479 0001973  98.9389 261.1963 13.12444353200095
